{
    "links": {
        "self": "http://www.neowsapp.com/rest/v1/neo/3831465?api_key=iIulBulltgU6a56xZRHN4H3l9WmuAYTsLGpBGhQ2"
    },
    "id": "3831465",
    "neo_reference_id": "3831465",
    "name": "(2018 TQ2)",
    "designation": "2018 TQ2",
    "nasa_jpl_url": "http://ssd.jpl.nasa.gov/sbdb.cgi?sstr=3831465",
    "absolute_magnitude_h": 21.8,
    "estimated_diameter": {
        "kilometers": {
            "estimated_diameter_min": 0.1160259082,
            "estimated_diameter_max": 0.2594418179
        },
        "meters": {
            "estimated_diameter_min": 116.0259082094,
            "estimated_diameter_max": 259.4418179074
        },
        "miles": {
            "estimated_diameter_min": 0.0720951346,
            "estimated_diameter_max": 0.1612096218
        },
        "feet": {
            "estimated_diameter_min": 380.6624406898,
            "estimated_diameter_max": 851.1870938635
        }
    },
    "is_potentially_hazardous_asteroid": false,
    "close_approach_data": [
        {
            "close_approach_date": "2008-11-25",
            "close_approach_date_full": "2008-Nov-25 00:23",
            "epoch_date_close_approach": 1227572580000,
            "relative_velocity": {
                "kilometers_per_second": "12.1408921654",
                "kilometers_per_hour": "43707.2117952661",
                "miles_per_hour": "27157.9616846752"
            },
            "miss_distance": {
                "astronomical": "0.2137366592",
                "lunar": "83.1435604288",
                "kilometers": "31974548.957235904",
                "miles": "19868063.4276833152"
            },
            "orbiting_body": "Earth"
        },
        {
            "close_approach_date": "2018-10-26",
            "close_approach_date_full": "2018-Oct-26 16:59",
            "epoch_date_close_approach": 1540573140000,
            "relative_velocity": {
                "kilometers_per_second": "7.5328311005",
                "kilometers_per_hour": "27118.191961699",
                "miles_per_hour": "16850.1898886457"
            },
            "miss_distance": {
                "astronomical": "0.0559168582",
                "lunar": "21.7516578398",
                "kilometers": "8365042.883812034",
                "miles": "5197796.6229687092"
            },
            "orbiting_body": "Earth"
        },
        {
            "close_approach_date": "2028-09-10",
            "close_approach_date_full": "2028-Sep-10 23:43",
            "epoch_date_close_approach": 1852242180000,
            "relative_velocity": {
                "kilometers_per_second": "17.1527768723",
                "kilometers_per_hour": "61749.9967401227",
                "miles_per_hour": "38369.0465855501"
            },
            "miss_distance": {
                "astronomical": "0.3872162514",
                "lunar": "150.6271217946",
                "kilometers": "57926726.438824518",
                "miles": "35993998.7451856284"
            },
            "orbiting_body": "Earth"
        }
    ],
    "orbital_data": {
        "orbit_id": "30",
        "orbit_determination_date": "2020-09-11 07:40:33",
        "first_observation_date": "2018-10-05",
        "last_observation_date": "2018-11-21",
        "data_arc_in_days": 47,
        "observations_used": 326,
        "orbit_uncertainty": "6",
        "minimum_orbit_intersection": ".0518995",
        "jupiter_tisserand_invariant": "3.440",
        "epoch_osculation": "2459000.5",
        "eccentricity": ".5308211360584315",
        "semi_major_axis": "2.221789402835162",
        "inclination": "7.68164589926432",
        "ascending_node_longitude": "222.3818164966097",
        "orbital_period": "1209.630596494304",
        "perihelion_distance": "1.042416627939617",
        "perihelion_argument": "172.3998384581271",
        "aphelion_distance": "3.401162177730708",
        "perihelion_time": "2458418.885257258404",
        "mean_anomaly": "173.0952474199925",
        "mean_motion": ".2976115196187462",
        "equinox": "J2000",
        "orbit_class": {
            "orbit_class_type": "AMO",
            "orbit_class_description": "Near-Earth asteroid orbits similar to that of 1221 Amor",
            "orbit_class_range": "1.017 AU < q (perihelion) < 1.3 AU"
        }
    },
    "is_sentry_object": false
}